[{"OBJECT_NAME":"ISAT","OBJECT_ID":"2018-111D","EPOCH":"2026-03-09T17:22:14.830464","MEAN_MOTION":15.51117886,"ECCENTRICITY":0.00027337,"INCLINATION":97.59,"RA_OF_ASC_NODE":357.4744,"ARG_OF_PERICENTER":333.2422,"MEAN_ANOMALY":26.8688,"EPHEMERIS_TYPE":0,"CLASSIFICATION_TYPE":"U","NORAD_CAT_ID":43879,"ELEMENT_SET_NO":999,"REV_AT_EPOCH":39568,"BSTAR":0.0010351444,"MEAN_MOTION_DOT":0.00060631,"MEAN_MOTION_DDOT":0},{"OBJECT_NAME":"H-2A R\/B","OBJECT_ID":"2016-012E","EPOCH":"2026-03-09T13:56:00.077280","MEAN_MOTION":15.50545748,"ECCENTRICITY":0.000445,"INCLINATION":30.6224,"RA_OF_ASC_NODE":241.3867,"ARG_OF_PERICENTER":267.0024,"MEAN_ANOMALY":93.0109,"EPHEMERIS_TYPE":0,"CLASSIFICATION_TYPE":"U","NORAD_CAT_ID":41341,"ELEMENT_SET_NO":999,"REV_AT_EPOCH":55602,"BSTAR":0.00066465,"MEAN_MOTION_DOT":0.00039664,"MEAN_MOTION_DDOT":0}]
